[
    {
        "Altitude(m)": 703681.8340563291,
        "Argument of Periapsis(deg)": 0.0022780242373254137,
        "Eccentricity": 0.0,
        "Inclination(deg)": 45.0,
        "Latitude(deg)": -1.7026819262099637,
        "Longitude(deg)": 36.56413742296016,
        "Mean Anomaly(deg)": -177.6933566705038,
        "RAAN(deg)": 314.9978496117084,
        "Satellite Name": "Constellation 1 1397",
        "Satellite Number": 1397,
        "Semi-Major Axis(m)": 7083131.272910544,
        "Time(s)": 38
    },
    {
        "Altitude(m)": 703688.2577760238,
        "Argument of Periapsis(deg)": 0.002337972243570819,
        "Eccentricity": 0.0,
        "Inclination(deg)": 45.0,
        "Latitude(deg)": -1.7458749026047302,
        "Longitude(deg)": 36.602921993978725,
        "Mean Anomaly(deg)": -177.6326555302539,
        "RAAN(deg)": 314.9977930225428,
        "Satellite Name": "Constellation 1 1397",
        "Satellite Number": 1397,
        "Semi-Major Axis(m)": 7083131.272910544,
        "Time(s)": 39
    },
    {
        "Altitude(m)": 703694.7018004026,
        "Argument of Periapsis(deg)": 0.0023979202498162246,
        "Eccentricity": 0.0,
        "Inclination(deg)": 45.0,
        "Latitude(deg)": -1.789066801825396,
        "Longitude(deg)": 36.64170844937061,
        "Mean Anomaly(deg)": -177.57195439000404,
        "RAAN(deg)": 314.99773643337716,
        "Satellite Name": "Constellation 1 1397",
        "Satellite Number": 1397,
        "Semi-Major Axis(m)": 7083131.272910544,
        "Time(s)": 40
    },
    {
        "Altitude(m)": 703701.1661192506,
        "Argument of Periapsis(deg)": 0.00245786825606163,
        "Eccentricity": 0.0,
        "Inclination(deg)": 45.0,
        "Latitude(deg)": -1.8322575988729026,
        "Longitude(deg)": 36.68049683750838,
        "Mean Anomaly(deg)": -177.51125324975416,
        "RAAN(deg)": 314.99767984421163,
        "Satellite Name": "Constellation 1 1397",
        "Satellite Number": 1397,
        "Semi-Major Axis(m)": 7083131.272910544,
        "Time(s)": 41
    },
    {
        "Altitude(m)": 703707.6507222526,
        "Argument of Periapsis(deg)": 0.002517816262307036,
        "Eccentricity": 0.0,
        "Inclination(deg)": 45.0,
        "Latitude(deg)": -1.875447268744983,
        "Longitude(deg)": 36.71928720676872,
        "Mean Anomaly(deg)": -177.45055210950423,
        "RAAN(deg)": 314.99762325504605,
        "Satellite Name": "Constellation 1 1397",
        "Satellite Number": 1397,
        "Semi-Major Axis(m)": 7083131.272910544,
        "Time(s)": 42
    },
    {
        "Altitude(m)": 703714.1555989946,
        "Argument of Periapsis(deg)": 0.0025777642685524413,
        "Eccentricity": 0.0,
        "Inclination(deg)": 45.0,
        "Latitude(deg)": -1.9186357864356363,
        "Longitude(deg)": 36.758079605532224,
        "Mean Anomaly(deg)": -177.38985096925435,
        "RAAN(deg)": 314.9975666658805,
        "Satellite Name": "Constellation 1 1397",
        "Satellite Number": 1397,
        "Semi-Major Axis(m)": 7083131.272910544,
        "Time(s)": 43
    },
    {
        "Altitude(m)": 703720.6807389878,
        "Argument of Periapsis(deg)": 0.002637712274797847,
        "Eccentricity": 0.0,
        "Inclination(deg)": 45.0,
        "Latitude(deg)": -1.9618231269356132,
        "Longitude(deg)": 36.79687391408705,
        "Mean Anomaly(deg)": -177.32914982900442,
        "RAAN(deg)": 314.99751007671495,
        "Satellite Name": "Constellation 1 1397",
        "Satellite Number": 1397,
        "Semi-Major Axis(m)": 7083131.272910544,
        "Time(s)": 44
    },
    {
        "Altitude(m)": 703727.226131634,
        "Argument of Periapsis(deg)": 0.0026976602810432526,
        "Eccentricity": 0.0,
        "Inclination(deg)": 45.0,
        "Latitude(deg)": -2.005009265231068,
        "Longitude(deg)": 36.835670517016666,
        "Mean Anomaly(deg)": -177.26844868875457,
        "RAAN(deg)": 314.9974534875494,
        "Satellite Name": "Constellation 1 1397",
        "Satellite Number": 1397,
        "Semi-Major Axis(m)": 7083131.272910544,
        "Time(s)": 45
    },
    {
        "Altitude(m)": 703733.7917662467,
        "Argument of Periapsis(deg)": 0.0027576082872886585,
        "Eccentricity": 0.0,
        "Inclination(deg)": 45.0,
        "Latitude(deg)": -2.048194176305303,
        "Longitude(deg)": 36.87446929461819,
        "Mean Anomaly(deg)": -177.20774754850467,
        "RAAN(deg)": 314.9973968983838,
        "Satellite Name": "Constellation 1 1397",
        "Satellite Number": 1397,
        "Semi-Major Axis(m)": 7083131.272910544,
        "Time(s)": 46
    },
    {
        "Altitude(m)": 703740.3776320509,
        "Argument of Periapsis(deg)": 0.0028175562935340644,
        "Eccentricity": 0.0,
        "Inclination(deg)": 45.0,
        "Latitude(deg)": -2.091377835137303,
        "Longitude(deg)": 36.91327029529031,
        "Mean Anomaly(deg)": -177.14704640825474,
        "RAAN(deg)": 314.9973403092182,
        "Satellite Name": "Constellation 1 1397",
        "Satellite Number": 1397,
        "Semi-Major Axis(m)": 7083131.272910544,
        "Time(s)": 47
    },
    {
        "Altitude(m)": 703746.9837181731,
        "Argument of Periapsis(deg)": 0.00287750429977947,
        "Eccentricity": 0.0,
        "Inclination(deg)": 45.0,
        "Latitude(deg)": -2.134560216702001,
        "Longitude(deg)": 36.95207356743621,
        "Mean Anomaly(deg)": -177.08634526800486,
        "RAAN(deg)": 314.9972837200527,
        "Satellite Name": "Constellation 1 1397",
        "Satellite Number": 1397,
        "Semi-Major Axis(m)": 7083131.272910544,
        "Time(s)": 48
    },
    {
        "Altitude(m)": 703753.6100136517,
        "Argument of Periapsis(deg)": 0.002937452306024875,
        "Eccentricity": 0.0,
        "Inclination(deg)": 45.0,
        "Latitude(deg)": -2.177741295970571,
        "Longitude(deg)": 36.99087915946437,
        "Mean Anomaly(deg)": -177.02564412775493,
        "RAAN(deg)": 314.9972271308871,
        "Satellite Name": "Constellation 1 1397",
        "Satellite Number": 1397,
        "Semi-Major Axis(m)": 7083131.272910544,
        "Time(s)": 49
    },
    {
        "Altitude(m)": 703760.2565074359,
        "Argument of Periapsis(deg)": 0.0029974003122702807,
        "Eccentricity": 0.0,
        "Inclination(deg)": 45.0,
        "Latitude(deg)": -2.220921047909584,
        "Longitude(deg)": 37.02968711978783,
        "Mean Anomaly(deg)": -176.96494298750505,
        "RAAN(deg)": 314.9971705417215,
        "Satellite Name": "Constellation 1 1397",
        "Satellite Number": 1397,
        "Semi-Major Axis(m)": 7083131.272910544,
        "Time(s)": 50
    },
    {
        "Altitude(m)": 703766.9231883687,
        "Argument of Periapsis(deg)": 0.0030573483185156866,
        "Eccentricity": 0.0,
        "Inclination(deg)": 45.0,
        "Latitude(deg)": -2.2640994474817715,
        "Longitude(deg)": 37.06849749682488,
        "Mean Anomaly(deg)": -176.90424184725518,
        "RAAN(deg)": 314.99711395255594,
        "Satellite Name": "Constellation 1 1397",
        "Satellite Number": 1397,
        "Semi-Major Axis(m)": 7083131.272910544,
        "Time(s)": 51
    },
    {
        "Altitude(m)": 703773.6100452113,
        "Argument of Periapsis(deg)": 0.003117296324761092,
        "Eccentricity": 0.0,
        "Inclination(deg)": 45.0,
        "Latitude(deg)": -2.3072764696454886,
        "Longitude(deg)": 37.107310170902004,
        "Mean Anomaly(deg)": -176.84354070700522,
        "RAAN(deg)": 314.99705736339035,
        "Satellite Name": "Constellation 1 1397",
        "Satellite Number": 1397,
        "Semi-Major Axis(m)": 7083131.272910544,
        "Time(s)": 52
    },
    {
        "Altitude(m)": 703780.3170666305,
        "Argument of Periapsis(deg)": 0.0031772443310064975,
        "Eccentricity": 0.0,
        "Inclination(deg)": 45.0,
        "Latitude(deg)": -2.3504520893538645,
        "Longitude(deg)": 37.14612552664174,
        "Mean Anomaly(deg)": -176.78283956675537,
        "RAAN(deg)": 314.99700077422483,
        "Satellite Name": "Constellation 1 1397",
        "Satellite Number": 1397,
        "Semi-Major Axis(m)": 7083131.272910544,
        "Time(s)": 53
    },
    {
        "Altitude(m)": 703787.0442411996,
        "Argument of Periapsis(deg)": 0.0032371923372519038,
        "Eccentricity": 0.0,
        "Inclination(deg)": 45.0,
        "Latitude(deg)": -2.393626281556518,
        "Longitude(deg)": 37.18494344438143,
        "Mean Anomaly(deg)": -176.72213842650544,
        "RAAN(deg)": 314.99694418505925,
        "Satellite Name": "Constellation 1 1397",
        "Satellite Number": 1397,
        "Semi-Major Axis(m)": 7083131.272910544,
        "Time(s)": 54
    },
    {
        "Altitude(m)": 703793.7915574001,
        "Argument of Periapsis(deg)": 0.0032971403434973088,
        "Eccentricity": 0.0,
        "Inclination(deg)": 45.0,
        "Latitude(deg)": -2.436799021197832,
        "Longitude(deg)": 37.22376397256037,
        "Mean Anomaly(deg)": -176.66143728625556,
        "RAAN(deg)": 314.99688759589367,
        "Satellite Name": "Constellation 1 1397",
        "Satellite Number": 1397,
        "Semi-Major Axis(m)": 7083131.272910544,
        "Time(s)": 55
    },
    {
        "Altitude(m)": 703800.5590036209,
        "Argument of Periapsis(deg)": 0.0033570883497427146,
        "Eccentricity": 0.0,
        "Inclination(deg)": 45.0,
        "Latitude(deg)": -2.4799702832177863,
        "Longitude(deg)": 37.26258715962371,
        "Mean Anomaly(deg)": -176.60073614600566,
        "RAAN(deg)": 314.9968310067281,
        "Satellite Name": "Constellation 1 1397",
        "Satellite Number": 1397,
        "Semi-Major Axis(m)": 7083131.272910544,
        "Time(s)": 56
    }
]